PRAETORIAN SDA_616      
1 65579U 25203Q   26115.90531765  .00000231  00000+0  19921-3 0  9995
2 65579  81.3069  59.3974 0005566 357.4944   2.6183 13.83317759 31456
PRAETORIAN SDA_617      
1 65580U 25203R   26115.84989701  .00000069  00000+0  52150-4 0  9998
2 65580  81.3041  59.2842 0007365 343.3950  16.6964 13.83197023 31453
PRAETORIAN SDA_618      
1 65581U 25203S   26115.95452711  .00000235  00000+0  19797-3 0  9991
2 65581  81.3026  58.9044 0009455 341.7573  18.3244 13.84767364 31487
PRAETORIAN SDA_619      
1 65582U 25203T   26115.95874868  .00000172  00000+0  14419-3 0  9999
2 65582  81.3049  59.1166 0007788 340.9335  19.1529 13.83937052 32102
PRAETORIAN SDA_620      
1 65583U 25203U   26115.90387140  .00000247  00000+0  21286-3 0  9990
2 65583  81.3035  59.1739 0007393 338.9138  21.1712 13.83612575 31469
PRAETORIAN SDA_621      
1 65584U 25203V   26115.95682675  .00000084  00000+0  65173-4 0  9990
2 65584  81.3026  59.0625 0007146 337.0220  23.0615 13.83792879 31471
PRAETORIAN SDA_601      
1 65585U 25203W   26115.90763758  .00000331  00000+0  28992-3 0  9990
2 65585  81.3040  59.3530 0005635 357.6164   2.4964 13.83423793 31454
