[{"OBJECT_NAME":"PRAETORIAN SDA_616","OBJECT_ID":"2025-203Q","EPOCH":"2026-04-25T21:43:39.444960","MEAN_MOTION":13.83317759,"ECCENTRICITY":0.00055662,"INCLINATION":81.3069,"RA_OF_ASC_NODE":59.3974,"ARG_OF_PERICENTER":357.4944,"MEAN_ANOMALY":2.6183,"EPHEMERIS_TYPE":0,"CLASSIFICATION_TYPE":"U","NORAD_CAT_ID":65579,"ELEMENT_SET_NO":999,"REV_AT_EPOCH":3145,"BSTAR":0.00019920554,"MEAN_MOTION_DOT":2.31e-6,"MEAN_MOTION_DDOT":0},{"OBJECT_NAME":"PRAETORIAN SDA_617","OBJECT_ID":"2025-203R","EPOCH":"2026-04-25T20:23:51.101664","MEAN_MOTION":13.83197023,"ECCENTRICITY":0.00073652,"INCLINATION":81.3041,"RA_OF_ASC_NODE":59.2842,"ARG_OF_PERICENTER":343.395,"MEAN_ANOMALY":16.6964,"EPHEMERIS_TYPE":0,"CLASSIFICATION_TYPE":"U","NORAD_CAT_ID":65580,"ELEMENT_SET_NO":999,"REV_AT_EPOCH":3145,"BSTAR":5.2150233e-5,"MEAN_MOTION_DOT":6.9e-7,"MEAN_MOTION_DDOT":0},{"OBJECT_NAME":"PRAETORIAN SDA_618","OBJECT_ID":"2025-203S","EPOCH":"2026-04-25T22:54:31.142304","MEAN_MOTION":13.84767364,"ECCENTRICITY":0.00094558,"INCLINATION":81.3026,"RA_OF_ASC_NODE":58.9044,"ARG_OF_PERICENTER":341.7573,"MEAN_ANOMALY":18.3244,"EPHEMERIS_TYPE":0,"CLASSIFICATION_TYPE":"U","NORAD_CAT_ID":65581,"ELEMENT_SET_NO":999,"REV_AT_EPOCH":3148,"BSTAR":0.00019797329,"MEAN_MOTION_DOT":2.35e-6,"MEAN_MOTION_DDOT":0},{"OBJECT_NAME":"PRAETORIAN SDA_619","OBJECT_ID":"2025-203T","EPOCH":"2026-04-25T23:00:35.885952","MEAN_MOTION":13.83937052,"ECCENTRICITY":0.00077884,"INCLINATION":81.3049,"RA_OF_ASC_NODE":59.1166,"ARG_OF_PERICENTER":340.9335,"MEAN_ANOMALY":19.1529,"EPHEMERIS_TYPE":0,"CLASSIFICATION_TYPE":"U","NORAD_CAT_ID":65582,"ELEMENT_SET_NO":999,"REV_AT_EPOCH":3210,"BSTAR":0.00014418586,"MEAN_MOTION_DOT":1.72e-6,"MEAN_MOTION_DDOT":0},{"OBJECT_NAME":"PRAETORIAN SDA_620","OBJECT_ID":"2025-203U","EPOCH":"2026-04-25T21:41:34.488960","MEAN_MOTION":13.83612575,"ECCENTRICITY":0.00073933,"INCLINATION":81.3035,"RA_OF_ASC_NODE":59.1739,"ARG_OF_PERICENTER":338.9138,"MEAN_ANOMALY":21.1712,"EPHEMERIS_TYPE":0,"CLASSIFICATION_TYPE":"U","NORAD_CAT_ID":65583,"ELEMENT_SET_NO":999,"REV_AT_EPOCH":3146,"BSTAR":0.00021286465,"MEAN_MOTION_DOT":2.47e-6,"MEAN_MOTION_DDOT":0},{"OBJECT_NAME":"PRAETORIAN SDA_621","OBJECT_ID":"2025-203V","EPOCH":"2026-04-25T22:57:49.831200","MEAN_MOTION":13.83792879,"ECCENTRICITY":0.0007146,"INCLINATION":81.3026,"RA_OF_ASC_NODE":59.0625,"ARG_OF_PERICENTER":337.022,"MEAN_ANOMALY":23.0615,"EPHEMERIS_TYPE":0,"CLASSIFICATION_TYPE":"U","NORAD_CAT_ID":65584,"ELEMENT_SET_NO":999,"REV_AT_EPOCH":3147,"BSTAR":6.5172576e-5,"MEAN_MOTION_DOT":8.4e-7,"MEAN_MOTION_DDOT":0},{"OBJECT_NAME":"PRAETORIAN SDA_601","OBJECT_ID":"2025-203W","EPOCH":"2026-04-25T21:46:59.886912","MEAN_MOTION":13.83423793,"ECCENTRICITY":0.00056355,"INCLINATION":81.304,"RA_OF_ASC_NODE":59.353,"ARG_OF_PERICENTER":357.6164,"MEAN_ANOMALY":2.4964,"EPHEMERIS_TYPE":0,"CLASSIFICATION_TYPE":"U","NORAD_CAT_ID":65585,"ELEMENT_SET_NO":999,"REV_AT_EPOCH":3145,"BSTAR":0.00028992354,"MEAN_MOTION_DOT":3.31e-6,"MEAN_MOTION_DDOT":0}]
